[{"OBJECT_NAME":"YAOGAN-43 03C","OBJECT_ID":"2024-190C","EPOCH":"2026-03-09T13:09:38.342016","MEAN_MOTION":15.23076374,"ECCENTRICITY":0.00060361,"INCLINATION":34.9956,"RA_OF_ASC_NODE":104.7228,"ARG_OF_PERICENTER":169.773,"MEAN_ANOMALY":190.3109,"EPHEMERIS_TYPE":0,"CLASSIFICATION_TYPE":"U","NORAD_CAT_ID":61619,"ELEMENT_SET_NO":999,"REV_AT_EPOCH":7662,"BSTAR":2.5482015e-5,"MEAN_MOTION_DOT":5.78e-6,"MEAN_MOTION_DDOT":0},{"OBJECT_NAME":"SITRO-AIS-62","OBJECT_ID":"2025-313BA","EPOCH":"2026-03-09T22:28:04.503072","MEAN_MOTION":15.2313984,"ECCENTRICITY":0.00083903,"INCLINATION":97.4013,"RA_OF_ASC_NODE":145.3565,"ARG_OF_PERICENTER":355.0929,"MEAN_ANOMALY":5.0224,"EPHEMERIS_TYPE":0,"CLASSIFICATION_TYPE":"U","NORAD_CAT_ID":67296,"ELEMENT_SET_NO":999,"REV_AT_EPOCH":1086,"BSTAR":0.00055522855,"MEAN_MOTION_DOT":0.00013063,"MEAN_MOTION_DDOT":0}]
